NORAD_CAT_ID,OBJECT_NAME,OBJECT_TYPE,EPOCH,MEAN_MOTION,ECCENTRICITY,INCLINATION,RA_OF_ASC_NODE,ARG_OF_PERICENTER,MEAN_ANOMALY,BSTAR,MEAN_MOTION_DOT,MEAN_MOTION_DDOT,TLE_LINE0,TLE_LINE1,TLE_LINE2,SEMIMAJOR_AXIS,PERIOD,APOGEE,PERIGEE,DECAYED
52661.0,STARLINK-4042,PAYLOAD,2022-09-24 17:51:42,15.08850559,0.0001681,53.2172,59.2078,60.3979,299.718,8.647e-05,1.089e-05,0.0,0 STARLINK-4042,1 52661U 22053F   22267.74424561  .00001089  00000-0  86470-4 0  9991,2 52661  53.2172  59.2078 0001681  60.3979 299.7180 15.08850559 20535,6917.848000000001,95.437,540.876,538.55,0.0
52661.0,STARLINK-4042,PAYLOAD,2022-09-25 03:24:01,15.088517199999998,0.0001758,53.2172,57.423,57.9765,302.1397,8.797299999999999e-05,1.113e-05,0.0,0 STARLINK-4042,1 52661U 22053F   22268.14168271  .00001113  00000-0  87973-4 0  9996,2 52661  53.2172  57.4230 0001758  57.9765 302.1397 15.08851720 20591,6917.845,95.437,540.9259999999998,538.493,0.0
52661.0,STARLINK-4042,PAYLOAD,2022-09-25 16:07:06,15.08842501,0.0001825,53.217,55.0444,58.1698,301.9472,0.00010725,1.419e-05,0.0,0 STARLINK-4042,1 52661U 22053F   22268.67160630  .00001419  00000-0  10725-3 0  9994,2 52661  53.2170  55.0444 0001825  58.1698 301.9472 15.08842501 20670,6917.873000000001,95.437,541.0,538.475,0.0
52661.0,STARLINK-4042,PAYLOAD,2022-09-26 03:14:49,15.08835883,0.0001804,53.2185,52.9628,58.2995,301.8173,-4.7036000000000004e-07,-2.96e-06,0.0,0 STARLINK-4042,1 52661U 22053F   22269.13529361 -.00000296  00000-0 -47036-6 0  9998,2 52661  53.2185  52.9628 0001804  58.2995 301.8173 15.08835883 20744,6917.893,95.438,541.006,538.51,0.0
52661.0,STARLINK-4042,PAYLOAD,2022-09-26 15:57:54,15.08841443,0.0001779,53.2183,50.5837,58.4149,301.7017,-7.503e-05,-1.482e-05,0.0,0 STARLINK-4042,1 52661U 22053F   22269.66521271 -.00001482  00000-0 -75030-4 0  9999,2 52661  53.2183  50.5837 0001779  58.4149 301.7017 15.08841443 20826,6917.876,95.437,540.972,538.51,0.0
52661.0,STARLINK-4042,PAYLOAD,2022-09-27 12:37:54,15.08851209,0.0001481,53.2168,46.717,57.9942,302.1194,-9.5197e-05,-1.803e-05,0.0,0 STARLINK-4042,1 52661U 22053F   22270.52632645 -.00001803  00000-0 -95197-4 0  9997,2 52661  53.2168  46.7170 0001481  57.9942 302.1194 15.08851209 20957,6917.846,95.437,540.736,538.687,0.0
52661.0,STARLINK-4042,PAYLOAD,2022-09-28 12:28:41,15.088463199999998,0.0001564999999999,53.2176,42.256,67.21,292.9058,0.00020437,2.967e-05,0.0,0 STARLINK-4042,1 52661U 22053F   22271.51991964  .00002967  00000-0  20437-3 0  9993,2 52661  53.2176  42.2560 0001565  67.2100 292.9058 15.08846320 21104,6917.861,95.437,540.809,538.643,0.0
52661.0,STARLINK-4042,PAYLOAD,2022-09-28 18:50:13,15.08853855,0.0001657,53.2185,41.0677,73.2167,286.9007,9.1785e-05,1.174e-05,0.0,0 STARLINK-4042,1 52661U 22053F   22271.78487965  .00001174  00000-0  91785-4 0  9997,2 52661  53.2185  41.0677 0001657  73.2167 286.9007 15.08853855 21144,6917.8380000000025,95.437,540.849,538.557,0.0
52661.0,STARLINK-4042,PAYLOAD,2022-09-29 12:19:30,15.0882397,0.0001643,53.2175,37.7965,67.0491,293.0674,-0.00015039,-2.68e-05,0.0,0 STARLINK-4042,1 52661U 22053F   22272.51354687 -.00002680  00000-0 -15039-3 0  9995,2 52661  53.2175  37.7965 0001643  67.0491 293.0674 15.08823970 21257,6917.929,95.439,540.931,538.658,0.0
52661.0,STARLINK-4042,PAYLOAD,2022-09-29 18:41:03,15.08824864,0.0001634,53.2178,36.6074,62.1505,297.9652,-0.00016582,-2.925e-05,0.0,0 STARLINK-4042,1 52661U 22053F   22272.77850910 -.00002925  00000-0 -16582-3 0  9999,2 52661  53.2178  36.6074 0001634  62.1505 297.9652 15.08824864 21297,6917.927,95.439,540.922,538.661,0.0
52661.0,STARLINK-4042,PAYLOAD,2022-09-30 01:02:35,15.08852778,0.0001511,53.2186,35.4201,61.5281,298.5864,-0.00043104,-7.144e-05,0.0,0 STARLINK-4042,1 52661U 22053F   22273.04346866 -.00007144  00000-0 -43104-3 0  9998,2 52661  53.2186  35.4201 0001511  61.5281 298.5864 15.08852778 21335,6917.840999999999,95.437,540.752,538.661,0.0
52661.0,STARLINK-4042,PAYLOAD,2022-09-30 08:59:30,15.0885814,0.0001548,53.217,33.9315,52.1116,308.0016,-0.0003778999999999,-6.3e-05,0.0,0 STARLINK-4042,1 52661U 22053F   22273.37465941 -.00006300  00000-0 -37790-3 0  9997,2 52661  53.2170  33.9315 0001548  52.1116 308.0016 15.08858140 21380,6917.825,95.436,540.761,538.619,0.0
52661.0,STARLINK-4042,PAYLOAD,2022-09-30 15:21:02,15.08842433,0.0001773,53.2183,32.7454,56.0444,304.0716,1.9881e-05,2.8e-07,0.0,0 STARLINK-4042,1 52661U 22053F   22273.63961786  .00000028  00000-0  19881-4 0  9995,2 52661  53.2183  32.7454 0001773  56.0444 304.0716 15.08842433 21428,6917.873000000001,95.437,540.964,538.511,0.0
52661.0,STARLINK-4042,PAYLOAD,2022-10-01 12:01:03,15.08839423,0.000177,53.2179,28.8764,56.8151,303.301,0.00031757,4.77e-05,0.0,0 STARLINK-4042,1 52661U 22053F   22274.50073226  .00004770  00000-0  31757-3 0  9998,2 52661  53.2179  28.8764 0001770  56.8151 303.3010 15.08839423 21551,6917.882,95.438,540.972,538.523,0.0
52661.0,STARLINK-4042,PAYLOAD,2022-10-01 13:36:26,15.08840162,0.0001757,53.219,28.58,56.5012,303.6148,0.00032119,4.827e-05,0.0,0 STARLINK-4042,1 52661U 22053F   22274.56697238  .00004827  00000-0  32119-3 0  9995,2 52661  53.2190  28.5800 0001757  56.5012 303.6148 15.08840162 21568,6917.88,95.438,540.96,538.529,0.0
52661.0,STARLINK-4042,PAYLOAD,2022-10-01 16:47:12,15.0884473,0.0001655,53.2176,27.9841,52.8103,307.3040000000001,0.00035227,5.324e-05,0.0,0 STARLINK-4042,1 52661U 22053F   22274.69944904  .00005324  00000-0  35227-3 0  9990,2 52661  53.2176  27.9841 0001655  52.8103 307.3040 15.08844730 21586,6917.866,95.437,540.876,538.586,0.0
52661.0,STARLINK-4042,PAYLOAD,2022-10-02 07:05:41,15.08829252,0.0001827,53.2179,25.3084,52.7539,307.362,-2.2351e-05,-6.44e-06,0.0,0 STARLINK-4042,1 52661U 22053F   22275.29562403 -.00000644  00000-0 -22351-4 0  9994,2 52661  53.2179  25.3084 0001827  52.7539 307.3620 15.08829252 21679,6917.913000000001,95.438,541.0419999999998,538.514,0.0
52661.0,STARLINK-4042,PAYLOAD,2022-10-02 11:51:51,15.08829987,0.000176,53.2189,24.4174,53.0271,307.0882,-7.3266e-05,-1.454e-05,0.0,0 STARLINK-4042,1 52661U 22053F   22275.49434483 -.00001454  00000-0 -73266-4 0  9993,2 52661  53.2189  24.4174 0001760  53.0271 307.0882 15.08829987 21709,6917.911,95.438,540.994,538.558,0.0
52661.0,STARLINK-4042,PAYLOAD,2022-10-02 15:02:37,15.088325199999998,0.0001848,53.2174,23.8216,52.6165,307.4995,-0.00016709,-2.946e-05,0.0,0 STARLINK-4042,1 52661U 22053F   22275.62682125 -.00002946  00000-0 -16709-3 0  9991,2 52661  53.2174  23.8216 0001848  52.6165 307.4995 15.08832520 21725,6917.903,95.438,541.047,538.49,0.0
52661.0,STARLINK-4042,PAYLOAD,2022-10-03 00:34:56,15.08842112,0.0001834,53.2178,22.0379,52.0016,308.1142,8.3556e-05,1.042e-05,0.0,0 STARLINK-4042,1 52661U 22053F   22276.02425944  .00001042  00000-0  83556-4 0  9999,2 52661  53.2178  22.0379 0001834  52.0016 308.1142 15.08842112 21780,6917.874,95.437,541.008,538.47,0.0
52661.0,STARLINK-4042,PAYLOAD,2022-10-03 11:42:37,15.08862123,0.000173,53.2167,19.956,49.3575,310.7567,0.00077734,0.00012112,0.0,0 STARLINK-4042,1 52661U 22053F   22276.48793397  .00012112  00000-0  77734-3 0  9999,2 52661  53.2167  19.9560 0001730  49.3575 310.7567 15.08862123 21851,6917.813,95.436,540.875,538.481,0.0
52661.0,STARLINK-4042,PAYLOAD,2022-10-03 13:18:00,15.08866351,0.0001786,53.2165,19.6584,49.7613,310.3535,0.0012439,0.00019578,0.0,0 STARLINK-4042,1 52661U 22053F   22276.55417538  .00019578  00000-0  12439-2 0  9990,2 52661  53.2165  19.6584 0001786  49.7613 310.3535 15.08866351 21869,6917.8,95.436,540.9,538.429,0.0
52661.0,STARLINK-4042,PAYLOAD,2022-10-04 13:08:46,15.08870318,0.0001771999999999,53.217,15.1984,43.4897,316.6235,0.00079565,0.00012408,0.0,0 STARLINK-4042,1 52661U 22053F   22277.54776291  .00012408  00000-0  79565-3 0  9993,2 52661  53.2170  15.1984 0001772  43.4897 316.6235 15.08870318 22012,6917.788000000001,95.436,540.879,538.427,0.0
52661.0,STARLINK-4042,PAYLOAD,2022-10-05 12:59:34,15.088350199999995,0.0001916,53.2169,10.7374,46.4298,313.6853,2.3584e-07,-2.84e-06,0.0,0 STARLINK-4042,1 52661U 22053F   22278.54136700 -.00000284  00000-0  23584-6 0  9992,2 52661  53.2169  10.7374 0001916  46.4298 313.6853 15.08835020 22162,6917.896,95.438,541.086,538.435,0.0
52661.0,STARLINK-4042,PAYLOAD,2022-10-06 12:50:22,15.0883236,0.0001958,53.218,6.2797,48.0721,312.0437,0.00016796,2.385e-05,0.0,0 STARLINK-4042,1 52661U 22053F   22279.53497924  .00002385  00000-0  16796-3 0  9997,2 52661  53.2180   6.2797 0001958  48.0721 312.0437 15.08832360 22311,6917.904,95.438,541.123,538.414,0.0
52661.0,STARLINK-4042,PAYLOAD,2022-10-06 17:36:31,15.08848539,0.000193,53.2177,5.3851,41.8085,318.3054,0.00057082,8.809999999999999e-05,0.0,0 STARLINK-4042,1 52661U 22053F   22279.73369389  .00008810  00000-0  57082-3 0  9994,2 52661  53.2177   5.3851 0001930  41.8085 318.3054 15.08848539 22344,6917.854,95.437,541.054,538.384,0.0
52661.0,STARLINK-4042,PAYLOAD,2022-10-07 09:30:22,15.08843536,0.000188,53.2174,2.4121,40.9044,319.2089,0.00029045,4.338e-05,0.0,0 STARLINK-4042,1 52661U 22053F   22280.39609348  .00004338  00000-0  29045-3 0  9999,2 52661  53.2174   2.4121 0001880  40.9044 319.2089 15.08843536 22449,6917.87,95.437,541.035,538.434,0.0
52661.0,STARLINK-4042,PAYLOAD,2022-10-07 17:27:18,15.08836541,0.0001909,53.2174,0.9257,38.3866,321.7262,0.00012247,1.661e-05,0.0,0 STARLINK-4042,1 52661U 22053F   22280.72729651  .00001661  00000-0  12247-3 0  9998,2 52661  53.2174   0.9257 0001909  38.3866 321.7262 15.08836541 22491,6917.891,95.438,541.077,538.435,0.0
52661.0,STARLINK-4042,PAYLOAD,2022-10-08 12:31:56,15.08836194,0.000234,53.2176,357.3586,50.7564,309.3636,1.9452e-05,2.1e-07,0.0,0 STARLINK-4042,1 52661U 22053F   22281.52218106  .00000021  00000-0  19452-4 0  9990,2 52661  53.2176 357.3586 0002340  50.7564 309.3636 15.08836194 22615,6917.892,95.438,541.376,538.138,0.0
